{
  "type": "FeatureCollection",
  "features": [
    {
      "type": "Feature",
      "properties": {
        "norad_id": 35154,
        "name": "FENGYUN 1C DEB",
        "group": "fengyun-1c-debris",
        "lat": -63.380566579716216,
        "lon": 143.58295803709362,
        "alt_km": 779.8224248733986,
        "timestamp": "2025-12-27T19:21:59.036103+00:00",
        "meta_object_name": "FENGYUN 1C DEB",
        "meta_object_id": "1999-025DMJ",
        "meta_epoch": "2025-12-24T01:58:11.654976",
        "meta_mean_motion": 14.18912921,
        "meta_eccentricity": 0.0178909,
        "meta_inclination": 99.4221,
        "meta_ra_of_asc_node": 120.2762,
        "meta_arg_of_pericenter": 10.5644,
        "meta_mean_anomaly": 349.921,
        "meta_ephemeris_type": 0,
        "meta_classification_type": "U",
        "meta_norad_cat_id": 35154,
        "meta_element_set_no": 999,
        "meta_rev_at_epoch": 64738,
        "meta_bstar": 0.00026986372,
        "meta_mean_motion_dot": 6.08e-06,
        "meta_mean_motion_ddot": 0,
        "tle_line1": "1 35154U 99025DMJ 25358.08207934  .00000608  00000+0  26986-3 0  9996",
        "tle_line2": "2 35154  99.4221 120.2762 0178909  10.5644 349.9210 14.18912921647385"
      },
      "geometry": {
        "type": "Point",
        "coordinates": [
          143.58295803709362,
          -63.380566579716216
        ]
      }
    },
    {
      "type": "Feature",
      "properties": {
        "norad_id": 35155,
        "name": "FENGYUN 1C DEB",
        "group": "fengyun-1c-debris",
        "lat": 75.23511109754976,
        "lon": -21.705594616904285,
        "alt_km": 807.8177222952454,
        "timestamp": "2025-12-27T19:21:59.036113+00:00",
        "meta_object_name": "FENGYUN 1C DEB",
        "meta_object_id": "1999-025DMK",
        "meta_epoch": "2025-12-24T18:15:01.567584",
        "meta_mean_motion": 14.19312867,
        "meta_eccentricity": 0.00258689,
        "meta_inclination": 98.5001,
        "meta_ra_of_asc_node": 9.9422,
        "meta_arg_of_pericenter": 39.4189,
        "meta_mean_anomaly": 320.8864,
        "meta_ephemeris_type": 0,
        "meta_classification_type": "U",
        "meta_norad_cat_id": 35155,
        "meta_element_set_no": 999,
        "meta_rev_at_epoch": 72884,
        "meta_bstar": 0.00057480531,
        "meta_mean_motion_dot": 1.169e-05,
        "meta_mean_motion_ddot": 0,
        "tle_line1": "1 35155U 99025DMK 25358.76043481  .00001169  00000+0  57481-3 0  9994",
        "tle_line2": "2 35155  98.5001   9.9422 0025868  39.4189 320.8864 14.19312867728845"
      },
      "geometry": {
        "type": "Point",
        "coordinates": [
          -21.705594616904285,
          75.23511109754976
        ]
      }
    },
    {
      "type": "Feature",
      "properties": {
        "norad_id": 35156,
        "name": "FENGYUN 1C DEB",
        "group": "fengyun-1c-debris",
        "lat": 47.57519364783422,
        "lon": -21.870883019926236,
        "alt_km": 838.2484447610841,
        "timestamp": "2025-12-27T19:21:59.036122+00:00",
        "meta_object_name": "FENGYUN 1C DEB",
        "meta_object_id": "1999-025DML",
        "meta_epoch": "2025-12-22T09:45:46.789920",
        "meta_mean_motion": 14.10637167,
        "meta_eccentricity": 0.00374137,
        "meta_inclination": 98.7528,
        "meta_ra_of_asc_node": 342.5755,
        "meta_arg_of_pericenter": 121.1131,
        "meta_mean_anomaly": 239.3719,
        "meta_ephemeris_type": 0,
        "meta_classification_type": "U",
        "meta_norad_cat_id": 35156,
        "meta_element_set_no": 999,
        "meta_rev_at_epoch": 64180,
        "meta_bstar": 0.00031397822,
        "meta_mean_motion_dot": 5.21e-06,
        "meta_mean_motion_ddot": 0,
        "tle_line1": "1 35156U 99025DML 25356.40679155  .00000521  00000+0  31398-3 0  9997",
        "tle_line2": "2 35156  98.7528 342.5755 0037413 121.1131 239.3719 14.10637167641809"
      },
      "geometry": {
        "type": "Point",
        "coordinates": [
          -21.870883019926236,
          47.57519364783422
        ]
      }
    },
    {
      "type": "Feature",
      "properties": {
        "norad_id": 35159,
        "name": "FENGYUN 1C DEB",
        "group": "fengyun-1c-debris",
        "lat": 12.363787135204262,
        "lon": -100.4194378467573,
        "alt_km": 734.6491249748506,
        "timestamp": "2025-12-27T19:21:59.036131+00:00",
        "meta_object_name": "FENGYUN 1C DEB",
        "meta_object_id": "1999-025DMP",
        "meta_epoch": "2025-12-27T03:46:49.537920",
        "meta_mean_motion": 14.45330766,
        "meta_eccentricity": 0.00129085,
        "meta_inclination": 98.8397,
        "meta_ra_of_asc_node": 76.9499,
        "meta_arg_of_pericenter": 133.5245,
        "meta_mean_anomaly": 256.6581,
        "meta_ephemeris_type": 0,
        "meta_classification_type": "U",
        "meta_norad_cat_id": 35159,
        "meta_element_set_no": 999,
        "meta_rev_at_epoch": 61689,
        "meta_bstar": 0.0021662628,
        "meta_mean_motion_dot": 7.578e-05,
        "meta_mean_motion_ddot": 0,
        "tle_line1": "1 35159U 99025DMP 25361.15751780  .00007578  00000+0  21663-2 0  9995",
        "tle_line2": "2 35159  98.8397  76.9499 0012908 133.5245 256.6581 14.45330766616898"
      },
      "geometry": {
        "type": "Point",
        "coordinates": [
          -100.4194378467573,
          12.363787135204262
        ]
      }
    },
    {
      "type": "Feature",
      "properties": {
        "norad_id": 35160,
        "name": "FENGYUN 1C DEB",
        "group": "fengyun-1c-debris",
        "lat": 72.4758375456879,
        "lon": -32.11053396466401,
        "alt_km": 763.489377910455,
        "timestamp": "2025-12-27T19:21:59.036140+00:00",
        "meta_object_name": "FENGYUN 1C DEB",
        "meta_object_id": "1999-025DMQ",
        "meta_epoch": "2025-12-24T13:56:33.825120",
        "meta_mean_motion": 14.36001877,
        "meta_eccentricity": 0.01764255,
        "meta_inclination": 99.1558,
        "meta_ra_of_asc_node": 113.7491,
        "meta_arg_of_pericenter": 204.8514,
        "meta_mean_anomaly": 154.4098,
        "meta_ephemeris_type": 0,
        "meta_classification_type": "U",
        "meta_norad_cat_id": 35160,
        "meta_element_set_no": 999,
        "meta_rev_at_epoch": 65101,
        "meta_bstar": 0.00054836097,
        "meta_mean_motion_dot": 1.847e-05,
        "meta_mean_motion_ddot": 0,
        "tle_line1": "1 35160U 99025DMQ 25358.58094705  .00001847  00000+0  54836-3 0  9999",
        "tle_line2": "2 35160  99.1558 113.7491 0176425 204.8514 154.4098 14.36001877651010"
      },
      "geometry": {
        "type": "Point",
        "coordinates": [
          -32.11053396466401,
          72.4758375456879
        ]
      }
    },
    {
      "type": "Feature",
      "properties": {
        "norad_id": 35165,
        "name": "FENGYUN 1C DEB",
        "group": "fengyun-1c-debris",
        "lat": 55.4416920712938,
        "lon": -72.79499007564878,
        "alt_km": 777.2940614864638,
        "timestamp": "2025-12-27T19:21:59.036149+00:00",
        "meta_object_name": "FENGYUN 1C DEB",
        "meta_object_id": "1999-025DMV",
        "meta_epoch": "2025-12-21T05:22:21.779616",
        "meta_mean_motion": 14.33882696,
        "meta_eccentricity": 0.0020007,
        "meta_inclination": 98.8797,
        "meta_ra_of_asc_node": 87.3309,
        "meta_arg_of_pericenter": 36.4089,
        "meta_mean_anomaly": 323.8451,
        "meta_ephemeris_type": 0,
        "meta_classification_type": "U",
        "meta_norad_cat_id": 35165,
        "meta_element_set_no": 999,
        "meta_rev_at_epoch": 89842,
        "meta_bstar": 0.0014686,
        "meta_mean_motion_dot": 4.055e-05,
        "meta_mean_motion_ddot": 0,
        "tle_line1": "1 35165U 99025DMV 25355.22386319  .00004055  00000+0  14686-2 0  9999",
        "tle_line2": "2 35165  98.8797  87.3309 0020007  36.4089 323.8451 14.33882696898426"
      },
      "geometry": {
        "type": "Point",
        "coordinates": [
          -72.79499007564878,
          55.4416920712938
        ]
      }
    },
    {
      "type": "Feature",
      "properties": {
        "norad_id": 35167,
        "name": "FENGYUN 1C DEB",
        "group": "fengyun-1c-debris",
        "lat": 78.16791680511881,
        "lon": -140.19556779839905,
        "alt_km": 698.2449874844033,
        "timestamp": "2025-12-27T19:21:59.036158+00:00",
        "meta_object_name": "FENGYUN 1C DEB",
        "meta_object_id": "1999-025DMX",
        "meta_epoch": "2025-12-24T05:19:40.498464",
        "meta_mean_motion": 14.31185435,
        "meta_eccentricity": 0.02299079,
        "meta_inclination": 98.4495,
        "meta_ra_of_asc_node": 351.1168,
        "meta_arg_of_pericenter": 170.1263,
        "meta_mean_anomaly": 190.4555,
        "meta_ephemeris_type": 0,
        "meta_classification_type": "U",
        "meta_norad_cat_id": 35167,
        "meta_element_set_no": 999,
        "meta_rev_at_epoch": 70184,
        "meta_bstar": 0.00033183096,
        "meta_mean_motion_dot": 1.122e-05,
        "meta_mean_motion_ddot": 0,
        "tle_line1": "1 35167U 99025DMX 25358.22199651  .00001122  00000+0  33183-3 0  9991",
        "tle_line2": "2 35167  98.4495 351.1168 0229907 170.1263 190.4555 14.31185435701841"
      },
      "geometry": {
        "type": "Point",
        "coordinates": [
          -140.19556779839905,
          78.16791680511881
        ]
      }
    }
  ]
}